[{"OBJECT_NAME":"ONEWEB-0181","OBJECT_ID":"2021-031W","EPOCH":"2026-03-09T16:26:33.710496","MEAN_MOTION":13.14501851,"ECCENTRICITY":0.00018281,"INCLINATION":87.8977,"RA_OF_ASC_NODE":309.5897,"ARG_OF_PERICENTER":80.4876,"MEAN_ANOMALY":279.646,"EPHEMERIS_TYPE":0,"CLASSIFICATION_TYPE":"U","NORAD_CAT_ID":48230,"ELEMENT_SET_NO":999,"REV_AT_EPOCH":23516,"BSTAR":-0.00046151852,"MEAN_MOTION_DOT":-1.58e-6,"MEAN_MOTION_DDOT":0},{"OBJECT_NAME":"DELTA 1 DEB","OBJECT_ID":"1975-052KQ","EPOCH":"2026-03-06T10:51:57.720960","MEAN_MOTION":13.27051157,"ECCENTRICITY":0.01051706,"INCLINATION":99.823,"RA_OF_ASC_NODE":126.5884,"ARG_OF_PERICENTER":116.5717,"MEAN_ANOMALY":261.8499,"EPHEMERIS_TYPE":0,"CLASSIFICATION_TYPE":"U","NORAD_CAT_ID":26836,"ELEMENT_SET_NO":999,"REV_AT_EPOCH":59454,"BSTAR":0.00018885829,"MEAN_MOTION_DOT":4.6e-7,"MEAN_MOTION_DDOT":0}]
